[
  {
    "isoName": "ar",
    "nativeName": "ar"
  },
  {
    "isoName": "az-Latn",
    "nativeName": "az-Latn"
  },
  {
    "isoName": "bg",
    "nativeName": "bg"
  },
  {
    "isoName": "bn",
    "nativeName": "bn"
  },
  {
    "isoName": "ca",
    "nativeName": "ca"
  },
  {
    "isoName": "cs",
    "nativeName": "cs"
  },
  {
    "isoName": "da",
    "nativeName": "da"
  },
  {
    "isoName": "de",
    "nativeName": "de"
  },
  {
    "isoName": "el",
    "nativeName": "el"
  },
  {
    "isoName": "en-GB",
    "nativeName": "en-GB"
  },
  {
    "isoName": "en-US",
    "nativeName": "en-US"
  },
  {
    "isoName": "eo",
    "nativeName": "eo"
  },
  {
    "isoName": "es",
    "nativeName": "es"
  },
  {
    "isoName": "et",
    "nativeName": "et"
  },
  {
    "isoName": "fa-IR",
    "nativeName": "fa-IR"
  },
  {
    "isoName": "fa",
    "nativeName": "fa"
  },
  {
    "isoName": "fi",
    "nativeName": "fi"
  },
  {
    "isoName": "fr",
    "nativeName": "fr"
  },
  {
    "isoName": "gn",
    "nativeName": "gn"
  },
  {
    "isoName": "he",
    "nativeName": "he"
  },
  {
    "isoName": "hr",
    "nativeName": "hr"
  },
  {
    "isoName": "hu",
    "nativeName": "hu"
  },
  {
    "isoName": "id",
    "nativeName": "id"
  },
  {
    "isoName": "is",
    "nativeName": "is"
  },
  {
    "isoName": "it",
    "nativeName": "it"
  },
  {
    "isoName": "ja",
    "nativeName": "ja"
  },
  {
    "isoName": "en-km",
    "nativeName": "en-km"
  },
  {
    "isoName": "ko-kr",
    "nativeName": "ko-kr"
  },
  {
    "isoName": "kur-CKB",
    "nativeName": "kur-CKB"
  },
  {
    "isoName": "lt",
    "nativeName": "lt"
  },
  {
    "isoName": "lu",
    "nativeName": "lu"
  },
  {
    "isoName": "lv",
    "nativeName": "lv"
  },
  {
    "isoName": "ml",
    "nativeName": "ml"
  },
  {
    "isoName": "ms",
    "nativeName": "ms"
  },
  {
    "isoName": "nb-no",
    "nativeName": "nb-no"
  },
  {
    "isoName": "nl",
    "nativeName": "nl"
  },
  {
    "isoName": "pl",
    "nativeName": "pl"
  },
  {
    "isoName": "pt-br",
    "nativeName": "pt-br"
  },
  {
    "isoName": "pt",
    "nativeName": "pt"
  },
  {
    "isoName": "ro",
    "nativeName": "ro"
  },
  {
    "isoName": "ru",
    "nativeName": "ru"
  },
  {
    "isoName": "sk",
    "nativeName": "sk"
  },
  {
    "isoName": "sl",
    "nativeName": "sl"
  },
  {
    "isoName": "sr",
    "nativeName": "sr"
  },
  {
    "isoName": "sr",
    "nativeName": "sr"
  },
  {
    "isoName": "sv",
    "nativeName": "sv"
  },
  {
    "isoName": "ta",
    "nativeName": "ta"
  },
  {
    "isoName": "th",
    "nativeName": "th"
  },
  {
    "isoName": "tr",
    "nativeName": "tr"
  },
  {
    "isoName": "ug",
    "nativeName": "ug"
  },
  {
    "isoName": "uk",
    "nativeName": "uk"
  },
  {
    "isoName": "vi",
    "nativeName": "vi"
  },
  {
    "isoName": "zh-CN",
    "nativeName": "zh-CN"
  },
  {
    "isoName": "zh-TW",
    "nativeName": "zh-TW"
  }
]